[{"OBJECT_NAME":"NINGXIA-1 7","OBJECT_ID":"2021-064B","EPOCH":"2026-03-09T23:03:16.134624","MEAN_MOTION":14.08535138,"ECCENTRICITY":0.00060368,"INCLINATION":45.0039,"RA_OF_ASC_NODE":315.6009,"ARG_OF_PERICENTER":124.1771,"MEAN_ANOMALY":235.9639,"EPHEMERIS_TYPE":0,"CLASSIFICATION_TYPE":"U","NORAD_CAT_ID":49019,"ELEMENT_SET_NO":999,"REV_AT_EPOCH":24025,"BSTAR":0.00016183554,"MEAN_MOTION_DOT":1.48e-6,"MEAN_MOTION_DDOT":0},{"OBJECT_NAME":"SL-8 DEB","OBJECT_ID":"1965-020BB","EPOCH":"2026-03-09T11:37:19.879104","MEAN_MOTION":12.99639135,"ECCENTRICITY":0.05919946,"INCLINATION":55.4919,"RA_OF_ASC_NODE":190.2543,"ARG_OF_PERICENTER":161.5685,"MEAN_ANOMALY":200.7717,"EPHEMERIS_TYPE":0,"CLASSIFICATION_TYPE":"U","NORAD_CAT_ID":1477,"ELEMENT_SET_NO":999,"REV_AT_EPOCH":86525,"BSTAR":0.00051288172,"MEAN_MOTION_DOT":2.36e-6,"MEAN_MOTION_DDOT":0}]
